[{"OBJECT_NAME":"QIANFAN-54","OBJECT_ID":"2024-232U","EPOCH":"2026-03-09T22:08:58.177248","MEAN_MOTION":13.5100364,"ECCENTRICITY":0.00028257,"INCLINATION":89.006,"RA_OF_ASC_NODE":32.0905,"ARG_OF_PERICENTER":33.2019,"MEAN_ANOMALY":326.9309,"EPHEMERIS_TYPE":0,"CLASSIFICATION_TYPE":"U","NORAD_CAT_ID":62255,"ELEMENT_SET_NO":999,"REV_AT_EPOCH":11118,"BSTAR":0.00014876579,"MEAN_MOTION_DOT":1.08e-6,"MEAN_MOTION_DDOT":0},{"OBJECT_NAME":"PORCUPINE 2","OBJECT_ID":"1965-065J","EPOCH":"2026-03-09T21:32:06.065952","MEAN_MOTION":13.36238728,"ECCENTRICITY":0.00704283,"INCLINATION":90.0251,"RA_OF_ASC_NODE":211.7883,"ARG_OF_PERICENTER":25.3019,"MEAN_ANOMALY":92.8087,"EPHEMERIS_TYPE":0,"CLASSIFICATION_TYPE":"U","NORAD_CAT_ID":1577,"ELEMENT_SET_NO":999,"REV_AT_EPOCH":94939,"BSTAR":0.00022183895,"MEAN_MOTION_DOT":1.25e-6,"MEAN_MOTION_DDOT":0}]
